name,street,city,state
1 - 4 Corporate Drive,"One Corporate Drive, Suite 130",Long Grove,IL
1 - 5 Westbrook Corporate Center,Two Westbrook Corporate Center Suite L003,Westchester,IL
1 Astellas Way,1 Astellas Way,Northbrook,IL
1 Baxter Parkway,1 Baxter Parkway,Deerfield,IL
1 Brickyard Drive,1 Brickyard Drive,Bloomington,IL
1 E. 22nd Street,1 E. 22nd Street,Lombard,IL
1 E. 8th Street,1 E. 8th Street,Chicago,IL
1 E. Delaware,1 E. Delaware,Chicago,IL
1 E. Erie Street,1 E. Erie Street,Chicago,IL
1 E. Jackson,1 E. Jackson,Chicago,IL
1 E. Schiller,1 E. Schiller,Chicago,IL
1 E. Scott Street,1 E. Scott Street,Chicago,IL
1 E. Superior Street,1 E. Superior Street,Chicago,IL
1 E. Wacker Drive,One E. Wacker Suite 2050,Chicago,IL
1 Ingalls Drive,1 Ingalls Drive,Harvey,IL
1 John Deere Place,1 John Deere Place,Moline,IL
1 Kish Hospital Drive,1 Kish Hospital Drive PO Box 707,DeKalb,IL
1 Medical Center Drive,1 Medical Center Drive,Galena,IL
1 Medline Place,1 Medline Place,Mundelein,IL
1 Memorial Drive,1 Memorial Drive,Alton,IL
1 Mid America Plaza,One Mid America Plaza Suite 110,Oakbrook Terrace,IL
1 N. Dearborn Street,1 N. Dearborn Street Suite 1600,Chicago,IL
1 N. Field Court,1 N. Field Court,Lake Forest,IL
1 N. Franklin,1 N. Franklin #375,Chicago,IL
1 N. Halsted Street,1 N. Halsted Street,Chicago,IL
1 N. LaSalle Street,1 North LaSalle Street Suite 1600,Chicago,IL
1 N. State St,"1 N. State St, suite 1100",Chicago,IL
1 N. Wacker Drive,One N. Wacker Drive Suite 750,Chicago,IL
1 Oak Brook Club Drive,1 Oak Brook Club Drive,Oak Brook,IL
1 Oakbrook Terrace,One Oakbrook Terrace Suite 600,Oakbrook Terrace,IL
1 Parkview Plaza,"17W110 22nd Street, Suite 760",Oakbrook Terrace,IL
1 Parkway Boulvard,One Parkway Boulvard,Deerfield,IL
1 Renaissance Blvd.,1 Renaissance Blvd.,Oakbrook Terrace,IL
1 Rivershire Lane,1 Rivershire Lane,Lincolnshire,IL
1 S. Dearborn,1 S. Dearborn Suite 2000,Chicago,IL
1 S. Wacker Drive,One S. Wacker #2285,Chicago,IL
1 Saint Anthony Way,1 Saint Anthony Way PO Box 340,Alton,IL
1 Takeda Parkway,1 Takeda Parkway,Deerfield,IL
1 Tower Lane,One Tower Lane Suite 330,Oakbrook Terrace,IL
1 Tower Lane - Red Box Tenant,"1 Tower Lane, Suite 1200",Oakbrook Terrace,IL
1 University Avenue,1 University Avenue,Bourbonnais,IL
1 University Circle,1 University Circle,Macomb,IL
1 W. Superior Street,1 W. Superior Street,Chicago,IL
1 University Parkway,One University Parkway,Romeoville,IL
1 University Plaza,One University Plaza,Springfield,IL
1 N. State St - Westwood College,"1 N. State Street, Suite 1000",Chicago,IL
1 Pierce Place,1 Pierce Place,Itasca,IL
1 N. Waukegan Road,1 N. Waukegan Road,North Chicago,IL
1 Pampered Chef Ln,One Pampered Chef Lane,Addison,IL
1 Fountainhead Dr,1 Fountainhead Dr,Westmont,IL
